CTC1_L_00106001-01
1 10000U 26262UP  26075.70030093  .00000000  00000+0  00000-0 0  9990
2 10000  40.0000   0.0000 0000000   0.0000   0.0000 14.33516687    12
CTC1_L_00106001-02
1 10001U 22619KY  26075.70030093  .00000000  00000+0  00000-0 0  9993
2 10001  40.0000   0.0000 0000000   0.0000  90.0000 14.33516687    12
CTC1_L_00106001-03
1 10002U 24954UT  26075.70030093  .00000000  00000+0  00000-0 0  9998
2 10002  40.0000   0.0000 0000000   0.0000 180.0000 14.33516687    13
CTC1_L_00106001-04
1 10003U 23834YH  26075.70030093  .00000000  00000+0  00000-0 0  9995
2 10003  40.0000   0.0000 0000000   0.0000 270.0000 14.33516687    14
CTC1_L_00106002-01
1 10004U 25023VP  26075.70030093  .00000000  00000+0  00000-0 0  9998
2 10004  40.0000  12.0000 0000000   0.0000  12.0000 14.33516687    12
CTC1_L_00106002-02
1 10005U 26450SH  26075.70030093  .00000000  00000+0  00000-0 0  9994
2 10005  40.0000  12.0000 0000000   0.0000 102.0000 14.33516687    13
CTC1_L_00106002-03
1 10006U 24900GR  26075.70030093  .00000000  00000+0  00000-0 0  9993
2 10006  40.0000  12.0000 0000000   0.0000 192.0000 14.33516687    13
CTC1_L_00106002-04
1 10007U 23272EE  26075.70030093  .00000000  00000+0  00000-0 0  9995
2 10007  40.0000  12.0000 0000000   0.0000 282.0000 14.33516687    14
CTC1_L_00106003-01
1 10008U 26172LH  26075.70030093  .00000000  00000+0  00000-0 0  9998
2 10008  40.0000  24.0000 0000000   0.0000  24.0000 14.33516687    12
CTC1_L_00106003-02
1 10009U 24413SH  26075.70030093  .00000000  00000+0  00000-0 0  9995
2 10009  40.0000  24.0000 0000000   0.0000 114.0000 14.33516687    13
CTC1_L_00106003-03
1 10010U 23053NU  26075.70030093  .00000000  00000+0  00000-0 0  9996
2 10010  40.0000  24.0000 0000000   0.0000 204.0000 14.33516687    15
CTC1_L_00106003-04
1 10011U 25914QO  26075.70030093  .00000000  00000+0  00000-0 0  9995
2 10011  40.0000  24.0000 0000000   0.0000 294.0000 14.33516687    15
CTC1_L_00106004-01
1 10012U 25022OV  26075.70030093  .00000000  00000+0  00000-0 0  9996
2 10012  40.0000  36.0000 0000000   0.0000  36.0000 14.33516687    13
CTC1_L_00106004-02
1 10013U 24535RE  26075.70030093  .00000000  00000+0  00000-0 0  9995
2 10013  40.0000  36.0000 0000000   0.0000 126.0000 14.33516687    14
CTC1_L_00106004-03
1 10014U 26494AO  26075.70030093  .00000000  00000+0  00000-0 0  9992
2 10014  40.0000  36.0000 0000000   0.0000 216.0000 14.33516687    15
CTC1_L_00106004-04
1 10015U 24697EK  26075.70030093  .00000000  00000+0  00000-0 0  9996
2 10015  40.0000  36.0000 0000000   0.0000 306.0000 14.33516687    16
CTC1_L_00106005-01
1 10016U 24071XH  26075.70030093  .00000000  00000+0  00000-0 0  9993
2 10016  40.0000  48.0000 0000000   0.0000  48.0000 14.33516687    13
CTC1_L_00106005-02
1 10017U 24788SR  26075.70030093  .00000000  00000+0  00000-0 0  9999
2 10017  40.0000  48.0000 0000000   0.0000 138.0000 14.33516687    14
CTC1_L_00106005-03
1 10018U 22234ZZ  26075.70030093  .00000000  00000+0  00000-0 0  9994
2 10018  40.0000  48.0000 0000000   0.0000 228.0000 14.33516687    15
CTC1_L_00106005-04
1 10019U 25366ZW  26075.70030093  .00000000  00000+0  00000-0 0  9994
2 10019  40.0000  48.0000 0000000   0.0000 318.0000 14.33516687    16
CTC1_L_00106006-01
1 10020U 26841BW  26075.70030093  .00000000  00000+0  00000-0 0  9995
2 10020  40.0000  60.0000 0000000   0.0000  60.0000 14.33516687    16
CTC1_L_00106006-02
1 10021U 22108ZI  26075.70030093  .00000000  00000+0  00000-0 0  9998
2 10021  40.0000  60.0000 0000000   0.0000 150.0000 14.33516687    17
CTC1_L_00106006-03
1 10022U 25680KO  26075.70030093  .00000000  00000+0  00000-0 0  9997
2 10022  40.0000  60.0000 0000000   0.0000 240.0000 14.33516687    18
CTC1_L_00106006-04
1 10023U 22908FI  26075.70030093  .00000000  00000+0  00000-0 0  9998
2 10023  40.0000  60.0000 0000000   0.0000 330.0000 14.33516687    19
CTC1_L_00106007-01
1 10024U 26411DH  26075.70030093  .00000000  00000+0  00000-0 0  9992
2 10024  40.0000  72.0000 0000000   0.0000  72.0000 14.33516687    16
CTC1_L_00106007-02
1 10025U 23797TD  26075.70030093  .00000000  00000+0  00000-0 0  9997
2 10025  40.0000  72.0000 0000000   0.0000 162.0000 14.33516687    17
CTC1_L_00106007-03
1 10026U 22854QY  26075.70030093  .00000000  00000+0  00000-0 0  9991
2 10026  40.0000  72.0000 0000000   0.0000 252.0000 14.33516687    18
CTC1_L_00106007-04
1 10027U 25922MT  26075.70030093  .00000000  00000+0  00000-0 0  9991
2 10027  40.0000  72.0000 0000000   0.0000 342.0000 14.33516687    19
CTC1_L_00106008-01
1 10028U 22006HB  26075.70030093  .00000000  00000+0  00000-0 0  9992
2 10028  40.0000  84.0000 0000000   0.0000  84.0000 14.33516687    16
CTC1_L_00106008-02
1 10029U 22792M   26075.70030093  .00000000  00000+0  00000-0 0  9995
2 10029  40.0000  84.0000 0000000   0.0000 174.0000 14.33516687    17
CTC1_L_00106008-03
1 10030U 23331DO  26075.70030093  .00000000  00000+0  00000-0 0  9997
2 10030  40.0000  84.0000 0000000   0.0000 264.0000 14.33516687    19
CTC1_L_00106008-04
1 10031U 26502EV  26075.70030093  .00000000  00000+0  00000-0 0  9991
2 10031  40.0000  84.0000 0000000   0.0000 354.0000 14.33516687    10
CTC1_L_00106009-01
1 10032U 24522AF  26075.70030093  .00000000  00000+0  00000-0 0  9992
2 10032  40.0000  96.0000 0000000   0.0000  96.0000 14.33516687    17
CTC1_L_00106009-02
1 10033U 22321HK  26075.70030093  .00000000  00000+0  00000-0 0  9998
2 10033  40.0000  96.0000 0000000   0.0000 186.0000 14.33516687    18
CTC1_L_00106009-03
1 10034U 26212HC  26075.70030093  .00000000  00000+0  00000-0 0  9992
2 10034  40.0000  96.0000 0000000   0.0000 276.0000 14.33516687    19
CTC1_L_00106009-04
1 10035U 23376TY  26075.70030093  .00000000  00000+0  00000-0 0  9991
2 10035  40.0000  96.0000 0000000   0.0000   6.0000 14.33516687    11
CTC1_L_00106010-01
1 10036U 25147TP  26075.70030093  .00000000  00000+0  00000-0 0  9990
2 10036  40.0000 108.0000 0000000   0.0000 108.0000 14.33516687    19
CTC1_L_00106010-02
1 10037U 22837JL  26075.70030093  .00000000  00000+0  00000-0 0  9994
2 10037  40.0000 108.0000 0000000   0.0000 198.0000 14.33516687    19
CTC1_L_00106010-03
1 10038U 25602TY  26075.70030093  .00000000  00000+0  00000-0 0  9998
2 10038  40.0000 108.0000 0000000   0.0000 288.0000 14.33516687    10
CTC1_L_00106010-04
1 10039U 25882PA  26075.70030093  .00000000  00000+0  00000-0 0  9999
2 10039  40.0000 108.0000 0000000   0.0000  18.0000 14.33516687    12
CTC1_L_00106011-01
1 10040U 26185MO  26075.70030093  .00000000  00000+0  00000-0 0  9998
2 10040  40.0000 120.0000 0000000   0.0000 120.0000 14.33516687    12
CTC1_L_00106011-02
1 10041U 26178ZD  26075.70030093  .00000000  00000+0  00000-0 0  9991
2 10041  40.0000 120.0000 0000000   0.0000 210.0000 14.33516687    13
CTC1_L_00106011-03
1 10042U 23538GD  26075.70030093  .00000000  00000+0  00000-0 0  9999
2 10042  40.0000 120.0000 0000000   0.0000 300.0000 14.33516687    14
CTC1_L_00106011-04
1 10043U 24119DD  26075.70030093  .00000000  00000+0  00000-0 0  9996
2 10043  40.0000 120.0000 0000000   0.0000  30.0000 14.33516687    15
CTC1_L_00106012-01
1 10044U 26844LB  26075.70030093  .00000000  00000+0  00000-0 0  9994
2 10044  40.0000 132.0000 0000000   0.0000 132.0000 14.33516687    12
CTC1_L_00106012-02
1 10045U 25557MJ  26075.70030093  .00000000  00000+0  00000-0 0  9995
2 10045  40.0000 132.0000 0000000   0.0000 222.0000 14.33516687    13
CTC1_L_00106012-03
1 10046U 23162DH  26075.70030093  .00000000  00000+0  00000-0 0  9996
2 10046  40.0000 132.0000 0000000   0.0000 312.0000 14.33516687    14
CTC1_L_00106012-04
1 10047U 23107SW  26075.70030093  .00000000  00000+0  00000-0 0  9996
2 10047  40.0000 132.0000 0000000   0.0000  42.0000 14.33516687    15
CTC1_L_00106013-01
1 10048U 24673WU  26075.70030093  .00000000  00000+0  00000-0 0  9996
2 10048  40.0000 144.0000 0000000   0.0000 144.0000 14.33516687    12
CTC1_L_00106013-02
1 10049U 24747WH  26075.70030093  .00000000  00000+0  00000-0 0  9999
2 10049  40.0000 144.0000 0000000   0.0000 234.0000 14.33516687    13
CTC1_L_00106013-03
1 10050U 26710UJ  26075.70030093  .00000000  00000+0  00000-0 0  9993
2 10050  40.0000 144.0000 0000000   0.0000 324.0000 14.33516687    15
CTC1_L_00106013-04
1 10051U 23633XG  26075.70030093  .00000000  00000+0  00000-0 0  9995
2 10051  40.0000 144.0000 0000000   0.0000  54.0000 14.33516687    16
CTC1_L_00106014-01
1 10052U 22115CE  26075.70030093  .00000000  00000+0  00000-0 0  9990
2 10052  40.0000 156.0000 0000000   0.0000 156.0000 14.33516687    13
CTC1_L_00106014-02
1 10053U 26856UL  26075.70030093  .00000000  00000+0  00000-0 0  9997
2 10053  40.0000 156.0000 0000000   0.0000 246.0000 14.33516687    14
CTC1_L_00106014-03
1 10054U 23507MP  26075.70030093  .00000000  00000+0  00000-0 0  9998
2 10054  40.0000 156.0000 0000000   0.0000 336.0000 14.33516687    15
CTC1_L_00106014-04
1 10055U 24996ME  26075.70030093  .00000000  00000+0  00000-0 0  9992
2 10055  40.0000 156.0000 0000000   0.0000  66.0000 14.33516687    16
CTC1_L_00106015-01
1 10056U 24233DD  26075.70030093  .00000000  00000+0  00000-0 0  9997
2 10056  40.0000 168.0000 0000000   0.0000 168.0000 14.33516687    13
CTC1_L_00106015-02
1 10057U 25264YD  26075.70030093  .00000000  00000+0  00000-0 0  9993
2 10057  40.0000 168.0000 0000000   0.0000 258.0000 14.33516687    14
CTC1_L_00106015-03
1 10058U 22575HH  26075.70030093  .00000000  00000+0  00000-0 0  9996
2 10058  40.0000 168.0000 0000000   0.0000 348.0000 14.33516687    15
CTC1_L_00106015-04
1 10059U 26746JN  26075.70030093  .00000000  00000+0  00000-0 0  9991
2 10059  40.0000 168.0000 0000000   0.0000  78.0000 14.33516687    16
CTC1_L_00106016-01
1 10060U 24814HI  26075.70030093  .00000000  00000+0  00000-0 0  9997
2 10060  40.0000 180.0000 0000000   0.0000 180.0000 14.33516687    16
CTC1_L_00106016-02
1 10061U 23547WZ  26075.70030093  .00000000  00000+0  00000-0 0  9990
2 10061  40.0000 180.0000 0000000   0.0000 270.0000 14.33516687    17
